COMMENT,ORIGINATOR,NORAD_CAT_ID,OBJECT_NAME,OBJECT_TYPE,CLASSIFICATION_TYPE,INTLDES,EPOCH,EPOCH_MICROSECONDS,MEAN_MOTION,ECCENTRICITY,INCLINATION,RA_OF_ASC_NODE,ARG_OF_PERICENTER,MEAN_ANOMALY,EPHEMERIS_TYPE,ELEMENT_SET_NO,REV_AT_EPOCH,BSTAR,MEAN_MOTION_DOT,MEAN_MOTION_DDOT,FILE,TLE_LINE0,TLE_LINE1,TLE_LINE2,OBJECT_ID,OBJECT_NUMBER,SEMIMAJOR_AXIS,PERIOD,APOGEE,PERIGEE,DECAYED,date
GENERATED VIA SPACETRACK.ORG API,18 SPCS,52180,SPACEBEE-134,PAYLOAD,U,22033Z,2023/4/3 5:31,758528,15.38403757,0.0005985,97.35,176.1724,86.6572,273.5358,0,999,5591,0.0018136,0.00069175,0,3879059,0 SPACEBEE-134,1 52180U 22033Z   23093.23043702  .00069175  00000-0  18136-2 0  9993,2 52180  97.3500 176.1724 0005985  86.6572 273.5358 15.38403757 55917,2022-033Z,52180,6828.966,93.604,454.918,446.744,1,
GENERATED VIA SPACETRACK.ORG API,18 SPCS,52180,SPACEBEE-134,PAYLOAD,U,22033Z,2023/4/3 16:27,326528,15.38448552,0.0005965,97.3498,176.6291,84.2469,275.9456,0,999,5596,0.0015741,0.00060045,0,3879301,0 SPACEBEE-134,1 52180U 22033Z   23093.68574452  .00060045  00000-0  15741-2 0  9999,2 52180  97.3498 176.6291 0005965  84.2469 275.9456 15.38448552 55966,2022-033Z,52180,6828.833,93.601,454.772,446.625,1,
GENERATED VIA SPACETRACK.ORG API,18 SPCS,52180,SPACEBEE-134,PAYLOAD,U,22033Z,2023/4/3 16:27,326528,15.38448552,0.0005965,97.3498,176.6291,84.2469,275.9456,0,999,5598,0.0015741,0.00060045,0,3879321,0 SPACEBEE-134,1 52180U 22033Z   23093.68574452  .00060045  00000-0  15741-2 0  9999,2 52180  97.3498 176.6291 0005965  84.2469 275.9456 15.38448552 55988,2022-033Z,52180,6828.833,93.601,454.772,446.625,1,
GENERATED VIA SPACETRACK.ORG API,18 SPCS,52180,SPACEBEE-134,PAYLOAD,U,22033Z,2023/4/4 4:56,578464,15.38530812,0.0005859,97.3498,177.1501,83.2317,276.9595,0,999,5604,0.0017723,0.00067864,0,3879667,0 SPACEBEE-134,1 52180U 22033Z   23094.20607151  .00067864  00000-0  17723-2 0  9999,2 52180  97.3498 177.1501 0005859  83.2317 276.9595 15.38530812 56045,2022-033Z,52180,6828.59,93.596,454.456,446.454,1,
GENERATED VIA SPACETRACK.ORG API,18 SPCS,52180,SPACEBEE-134,PAYLOAD,U,22033Z,2023/4/4 12:45,232064,15.38565737,0.0005831,97.3499,177.4761,81.6254,278.5652,0,999,5611,0.0015734,0.00060247,0,3879974,0 SPACEBEE-134,1 52180U 22033Z   23094.53126426  .00060247  00000-0  15734-2 0  9994,2 52180  97.3499 177.4761 0005831  81.6254 278.5652 15.38565737 56113,2022-033Z,52180,6828.487,93.594,454.333,446.37,1,
GENERATED VIA SPACETRACK.ORG API,18 SPCS,52180,SPACEBEE-134,PAYLOAD,U,22033Z,2023/4/5 4:21,310144,15.38654148,0.0005717,97.3498,178.1276,79.5785,280.6104,0,999,5621,0.0017049,0.00065521,0,3880853,0 SPACEBEE-134,1 52180U 22033Z   23095.18162396  .00065521  00000-0  17049-2 0  9993,2 52180  97.3498 178.1276 0005717  79.5785 280.6104 15.38654148 56211,2022-033Z,52180,6828.225,93.588,453.994,446.186,1,
GENERATED VIA SPACETRACK.ORG API,18 SPCS,52180,SPACEBEE-134,PAYLOAD,U,22033Z,2023/4/5 4:21,310144,15.38654148,0.0005717,97.3498,178.1276,79.5785,280.6104,0,999,5619,0.0017049,0.00065521,0,3880900,0 SPACEBEE-134,1 52180U 22033Z   23095.18162396  .00065521  00000-0  17049-2 0  9993,2 52180  97.3498 178.1276 0005717  79.5785 280.6104 15.38654148 56198,2022-033Z,52180,6828.225,93.588,453.994,446.186,1,
GENERATED VIA SPACETRACK.ORG API,18 SPCS,52180,SPACEBEE-134,PAYLOAD,U,22033Z,2023/4/5 18:24,816288,15.38722068,0.0005682,97.35,178.7149,75.6753,284.5123,0,999,5630,0.0016019,0.00061662,0,3881153,0 SPACEBEE-134,1 52180U 22033Z   23095.76691917  .00061662  00000-0  16019-2 0  9991,2 52180  97.3500 178.7149 0005682  75.6753 284.5123 15.38722068 56304,2022-033Z,52180,6828.024,93.584,453.769,446.01,1,
GENERATED VIA SPACETRACK.ORG API,18 SPCS,52180,SPACEBEE-134,PAYLOAD,U,22033Z,2023/4/6 5:19,870432,15.38784255,0.0005618,97.3495,179.1715,75.4282,284.7586,0,999,5635,0.0014867,0.00057305,0,3881504,0 SPACEBEE-134,1 52180U 22033Z   23096.22212813  .00057305  00000-0  14867-2 0  9995,2 52180  97.3495 179.1715 0005618  75.4282 284.7586 15.38784255 56351,2022-033Z,52180,6827.84,93.58,453.541,445.869,1,
GENERATED VIA SPACETRACK.ORG API,18 SPCS,52180,SPACEBEE-134,PAYLOAD,U,22033Z,2023/4/6 5:19,870432,15.38784255,0.0005618,97.3495,179.1715,75.4282,284.7586,0,999,5637,0.0014867,0.00057305,0,3881771,0 SPACEBEE-134,1 52180U 22033Z   23096.22212813  .00057305  00000-0  14867-2 0  9995,2 52180  97.3495 179.1715 0005618  75.4282 284.7586 15.38784255 56373,2022-033Z,52180,6827.84,93.58,453.541,445.869,1,
GENERATED VIA SPACETRACK.ORG API,18 SPCS,52180,SPACEBEE-134,PAYLOAD,U,22033Z,2023/4/7 4:44,133216,15.38894222,0.0005534,97.3488,180.1493,72.1396,288.0453,0,999,5652,0.0015877,0.00061455,0,3882626,0 SPACEBEE-134,1 52180U 22033Z   23097.19752469  .00061455  00000-0  15877-2 0  9991,2 52180  97.3488 180.1493 0005534  72.1396 288.0453 15.38894222 56520,2022-033Z,52180,6827.515,93.574,453.158,445.602,1,
GENERATED VIA SPACETRACK.ORG API,18 SPCS,52180,SPACEBEE-134,PAYLOAD,U,22033Z,2023/4/8 4:08,81024,15.3900874,0.0005419,97.3487,181.127,68.2925,291.8897,0,999,5665,0.0013809,0.00053584,0,3883184,0 SPACEBEE-134,1 52180U 22033Z   23098.17284816  .00053584  00000-0  13809-2 0  9993,2 52180  97.3487 181.1270 0005419  68.2925 291.8897 15.39008740 56650,2022-033Z,52180,6827.176,93.567,452.741,445.342,1,
GENERATED VIA SPACETRACK.ORG API,18 SPCS,52180,SPACEBEE-134,PAYLOAD,U,22033Z,2023/4/8 4:08,81024,15.3900874,0.0005419,97.3487,181.127,68.2925,291.8897,0,999,5667,0.0013809,0.00053584,0,3883527,0 SPACEBEE-134,1 52180U 22033Z   23098.17284816  .00053584  00000-0  13809-2 0  9993,2 52180  97.3487 181.1270 0005419  68.2925 291.8897 15.39008740 56672,2022-033Z,52180,6827.176,93.567,452.741,445.342,1,
GENERATED VIA SPACETRACK.ORG API,18 SPCS,52180,SPACEBEE-134,PAYLOAD,U,22033Z,2023/4/9 11:21,898368,15.39149885,0.0005316,97.3484,182.4315,62.6475,297.5311,0,999,5685,0.0012577,0.00048991,0,3884304,0 SPACEBEE-134,1 52180U 22033Z   23099.47317012  .00048991  00000-0  12577-2 0  9999,2 52180  97.3484 182.4315 0005316  62.6475 297.5311 15.39149885 56857,2022-033Z,52180,6826.759,93.558,452.253,444.995,1,
GENERATED VIA SPACETRACK.ORG API,18 SPCS,52180,SPACEBEE-134,PAYLOAD,U,22033Z,2023/4/9 11:21,898368,15.39149885,0.0005316,97.3484,182.4315,62.6475,297.5311,0,999,5687,0.0012577,0.00048991,0,3884332,0 SPACEBEE-134,1 52180U 22033Z   23099.47317012  .00048991  00000-0  12577-2 0  9999,2 52180  97.3484 182.4315 0005316  62.6475 297.5311 15.39149885 56879,2022-033Z,52180,6826.759,93.558,452.253,444.995,1,
GENERATED VIA SPACETRACK.ORG API,18 SPCS,52180,SPACEBEE-134,PAYLOAD,U,22033Z,2023/4/9 17:35,212320,15.39181393,0.0005234,97.3483,182.6922,61.5296,298.6477,0,999,5691,0.0013602,0.00053072,0,3884641,0 SPACEBEE-134,1 52180U 22033Z   23099.73322005  .00053072  00000-0  13602-2 0  9992,2 52180  97.3483 182.6922 0005234  61.5296 298.6477 15.39181393 56912,2022-033Z,52180,6826.666,93.556,452.104,444.958,1,
GENERATED VIA SPACETRACK.ORG API,18 SPCS,52180,SPACEBEE-134,PAYLOAD,U,22033Z,2023/4/10 10:45,800128,15.3926676,0.0005163,97.3483,183.4096,59.3539,300.8215,0,999,5700,0.0016504,0.00064689,0,3885177,0 SPACEBEE-134,1 52180U 22033Z   23100.44833102  .00064689  00000-0  16504-2 0  9998,2 52180  97.3483 183.4096 0005163  59.3539 300.8215 15.39266760 57008,2022-033Z,52180,6826.413,93.551,451.803,444.754,1,
GENERATED VIA SPACETRACK.ORG API,18 SPCS,52180,SPACEBEE-134,PAYLOAD,U,22033Z,2023/4/10 10:45,800128,15.3926676,0.0005163,97.3483,183.4096,59.3539,300.8215,0,999,5702,0.0016504,0.00064689,0,3885195,0 SPACEBEE-134,1 52180U 22033Z   23100.44833102  .00064689  00000-0  16504-2 0  9998,2 52180  97.3483 183.4096 0005163  59.3539 300.8215 15.39266760 57020,2022-033Z,52180,6826.413,93.551,451.803,444.754,1,
GENERATED VIA SPACETRACK.ORG API,18 SPCS,52180,SPACEBEE-134,PAYLOAD,U,22033Z,2023/4/11 5:28,950944,15.39370245,0.0005112,97.3482,184.1921,57.6001,302.5738,0,999,5714,0.0012569,0.00049314,0,3885783,0 SPACEBEE-134,1 52180U 22033Z   23101.22840221  .00049314  00000-0  12569-2 0  9990,2 52180  97.3482 184.1921 0005112  57.6001 302.5738 15.39370245 57149,2022-033Z,52180,6826.107,93.545,451.462,444.483,1,
GENERATED VIA SPACETRACK.ORG API,18 SPCS,52180,SPACEBEE-134,PAYLOAD,U,22033Z,2023/4/12 4:52,700544,15.39489264,0.0004988,97.3477,185.1709,53.8933,306.2774,0,999,5727,0.0013432,0.00052935,0,3886349,0 SPACEBEE-134,1 52180U 22033Z   23102.20342246  .00052935  00000-0  13432-2 0  9996,2 52180  97.3477 185.1709 0004988  53.8933 306.2774 15.39489264 57277,2022-033Z,52180,6825.756,93.538,451.025,444.216,1,
GENERATED VIA SPACETRACK.ORG API,18 SPCS,52180,SPACEBEE-134,PAYLOAD,U,22033Z,2023/4/13 4:16,73824,15.39606842,0.0004896,97.3477,186.1497,47.9292,312.237,0,999,5744,0.0014781,0.00058525,0,3886564,0 SPACEBEE-134,1 52180U 22033Z   23103.17836891  .00058525  00000-0  14781-2 0  9996,2 52180  97.3477 186.1497 0004896  47.9292 312.2370 15.39606842 57443,2022-033Z,52180,6825.408,93.53,450.615,443.931,1,
GENERATED VIA SPACETRACK.ORG API,18 SPCS,52180,SPACEBEE-134,PAYLOAD,U,22033Z,2023/4/13 15:11,657920,15.39662726,0.0004952,97.3472,186.6067,45.8882,314.2771,0,999,5749,0.0015725,0.00062414,0,3886950,0 SPACEBEE-134,1 52180U 22033Z   23103.63331780  .00062414  00000-0  15725-2 0  9995,2 52180  97.3472 186.6067 0004952  45.8882 314.2771 15.39662726 57496,2022-033Z,52180,6825.243,93.527,450.488,443.728,1,
GENERATED VIA SPACETRACK.ORG API,18 SPCS,52180,SPACEBEE-134,PAYLOAD,U,22033Z,2023/4/14 6:47,699104,15.39753443,0.0004776,97.3478,187.2585,43.9183,316.2441,0,999,5761,0.0016236,0.00064654,0,3887333,0 SPACEBEE-134,1 52180U 22033Z   23104.28321411  .00064654  00000-0  16236-2 0  9993,2 52180  97.3478 187.2585 0004776  43.9183 316.2441 15.39753443 57618,2022-033Z,52180,6824.975,93.521,450.099,443.58,1,
